METEOR-M2-4
1 59051U 24039A   26072.94003274  .00000050  00000+0  42174-4 0  9990
2 59051  98.6910  33.4881 0008198  85.8141 274.3973 14.22418077105721
SONATE-2
1 59112U 24043Q   26072.91602451  .00040449  00000+0  67775-3 0  9991
2 59112  97.5391 218.0496 0007927 189.0162 171.0949 15.51710011113082
GRBBeta
1 60237U 24128C   26072.29300574  .00005853  00000+0  40414-3 0  9998
2 60237  61.9899 192.5119 0051123 114.7393 245.9033 15.05843278 91829
Curium One
1 60242U 24128H   26072.85637017  .00010879  00000+0  64153-3 0  9991
2 60242  61.9790 183.0230 0050708 111.3889 249.2628 15.10950948 92046
ROBUSTA-3A
1 60243U 24128J   26072.83610745  .00011237  00000+0  67597-3 0  9993
2 60243  61.9863 185.0571 0051399 109.1430 251.5239 15.10174788 92013
CatSat
1 60246U 24125J   26072.82263353  .00055331  00000+0  99891-3 0  9996
2 60246  97.2207 284.7191 0027779 172.7358 187.4302 15.49122243 92586
ARTIC WX
1 60543U 24149CD  26072.64542520 -.00004086  00000+0 -42067-3 0  9994
2 60543  97.6881 145.8125 0003399  74.5983 285.5610 14.89797808 85073
ARCTICSAT 1
1 61762U 24199AD  26072.91242489  .00112635  00000+0  10634-2 0  9996
2 61762  97.3085 311.4009 0003769 223.1025 136.9941 15.66662694123059
HYPERVIEW-1G (RS66S)
1 61772U 24199AP  26072.93061104  .00078736  00000+0  10202-2 0  9996
2 61772  97.3083 309.1146 0006245 263.0524  97.0022 15.58596519119766
AO-123
1 61781U 24199AY  26072.92096680  .00010827  00000+0  32902-3 0  9991
2 61781  97.3155 302.4676 0012550 293.4505  66.5418 15.34154752119316
SAMSAT-IONOSPHERE
1 61784U 24199BB  26072.93226933  .00045924  00000+0  81919-3 0  9999
2 61784  97.3119 307.0513 0008425 274.2477  85.7812 15.49906863122770
CROCUBE
1 62394U 24247T   26072.40892954  .00036311  00000+0  84900-3 0  9998
2 62394  44.9732  76.6258 0001785  59.1506 300.9557 15.41595731 68538
JINJUSat 1B
1 63210U 25052A   26072.97933622  .00020431  00000+0  69676-3 0  9990
2 63210  97.4117 329.7674 0005460  72.9636 287.2203 15.30371138 55522
NUSHSAT 1
1 63211U 25052B   26072.95784554  .00023769  00000+0  76726-3 0  9998
2 63211  97.4093 330.0353 0005395  75.7767 284.4073 15.32114128 55540
TEVEL2-4
1 63213U 25052D   26072.94244397  .00022661  00000+0  75480-3 0  9991
2 63213  97.4016 329.3616 0004809  87.4282 272.7510 15.31116100 55526
TEVEL2-5
1 63214U 25052E   26072.95373556  .00021913  00000+0  73283-3 0  9991
2 63214  97.4014 329.3446 0004731  87.9686 272.2097 15.30992820 55528
TEVEL2-6
1 63215U 25052F   26072.50614614  .00023745  00000+0  79517-3 0  9997
2 63215  97.4018 328.8842 0004892  88.9740 271.2062 15.30932507 55456
TEVEL2-1
1 63217U 25052H   26072.24391945  .00019218  00000+0  65313-3 0  9998
2 63217  97.3991 328.3512 0004870  99.0664 261.1128 15.30497635 55404
TEVEL2-3
1 63218U 25052J   26072.24141467  .00019121  00000+0  64913-3 0  9999
2 63218  97.3992 328.3604 0004931  98.7892 261.3908 15.30533668 55400
TEVEL2-2
1 63219U 25052K   26072.63685425  .00022870  00000+0  77595-3 0  9995
2 63219  97.3990 328.7439 0004895  98.1267 262.0529 15.30516952 55468
TEVEL2-9
1 63237U 25052AD  26072.95695402  .00019252  00000+0  68874-3 0  9996
2 63237  97.4060 328.6244 0008270 112.6709 247.5406 15.28803361 55466
TEVEL2-7
1 63238U 25052AE  26072.52363088  .00020183  00000+0  72702-3 0  9992
2 63238  97.4058 328.1448 0008354 113.8057 246.4060 15.28566839 55399
TEVEL2-8
1 63239U 25052AF  26072.20338630  .00017293  00000+0  62423-3 0  9990
2 63239  97.4057 327.8070 0008302 115.1166 245.0936 15.28530922 55341
HYDRA-W
1 63490U 25052BL  26072.67159496  .00241176  00000+0  24005-2 0  9993
2 63490  97.3926 334.0185 0009143 101.2498 258.9790 15.64892726 55815
HADES-ICM (SO-125)
1 63492U 25052BN  26072.68106932  .00170959  00000+0  22260-2 0  9994
2 63492  97.3932 333.2766 0009231 103.5078 256.7207 15.58119630 55769
PARUS-T2
1 64574U 25135AY  26072.94252557  .00005098  00000+0  47173-3 0  9994
2 64574  97.7620 188.7589 0000554 315.1519  44.9657 14.94971698 39694
Ten-Koh2
1 66174U 25241A   26072.95050348  .00014808  00000+0  63551-3 0  9992
2 66174  51.6355  52.5822 0005751 185.6974 174.3939 15.22900979 21602
SPIRONE
1 66657U 25274H   26072.83913440  .00002813  00000+0  27508-3 0  9997
2 66657  97.7439   3.5484 0011703 339.7725  20.3030 14.93102572 15999
K-HERO
1 66660U 25274L   26072.73733253  .00003374  00000+0  32499-3 0  9990
2 66660  97.7441   3.5366 0013588 342.9016  17.1745 14.93553381 15981
SNUGLITE-III DURI
1 66661U 25274M   26072.86293825  .00002624  00000+0  25335-3 0  9999
2 66661  97.7437   3.6759 0014265 343.0573  17.0168 14.93636767 16009
SilverSat
1 66909U 98067XV  26072.33066969  .00228210  00000+0  15396-2 0  9999
2 66909  51.6245  46.1985 0005406 105.6574 254.5022 15.73849745 15763
GALAPAGOS
1 67279U 25313AH  26072.95250887  .00009200  00000+0  41138-3 0  9996
2 67279  97.3992 149.1299 0013751 343.8113  16.2682 15.21448821 11460
Lobachevsky
1 67282U 25313AL  26072.91863764  .00006646  00000+0  29385-3 0  9991
2 67282  97.3994 149.1626 0010114 341.8369  18.2505 15.21982688 11461
SAKHACUBE-CHOLBON
1 67290U 25313AU  26072.95362682  .00012459  00000+0  53182-3 0  9998
2 67290  97.4003 149.2834 0008722 338.3590  21.7277 15.23004408 11476
RS95S (QMR-KWT-2)
1 67291U 25313AV  26072.93993874  .00016865  00000+0  70527-3 0  9997
2 67291  97.4002 149.3012 0008341 336.5316  23.5540 15.23632523 11476
Delfi-N3xt
1 39428U 13066N   26072.56582594  .00007789  00000-0  69949-3 0  9994
2 39428  97.8337 353.0630 0076584 163.5406 196.8327 14.93732262660344
IO-86
1 40931U          25360.30710720  .00000000  00000-0  12800-3 0    00
2 40931   6.0006 332.5373 0012733 338.8432   8.1437 14.79075515    01
PARUS-T1
1 98707U 25009N   25063.20000000  .00000000  00000-0  00000-0 0    08
2 98707  97.4430 144.9801 0003811 149.1702 136.3402 15.16239457    06
T.MicroSat-1
1 98515U 25276Y   25347.12519372 +.00009703 +00000+0 +47621-3 0 00218
2 98515  97.4377  58.8963 0002080  99.7173 260.4296 15.18293117002180
CORIOLIS
1 27640U 03001A   26072.92764287  .00000172  00000+0  10141-3 0  9994
2 27640  98.7160  81.2566 0014944 124.9983 235.2598 14.19914591200705
